0 SL-8 DEB
1 02647U 65073L   13283.91404220  .00000036  00000-0  88124-3 0  9758
2 02647 056.0647 299.1288 0184747 022.2757 046.1897 12.42995428541487
0 SL-8 DEB
1 02647U 65073L   13286.16666352  .00000008  00000-0  69460-3 0  9766
2 02647 056.0646 293.1257 0184949 025.2334 046.2189 12.42996341541765
0 SL-8 DEB
1 02647U 65073L   13288.17743994  .00000038  00000-0  89353-3 0  9774
2 02647 056.0646 287.7674 0185101 027.8872 044.0345 12.42996939542015
0 SL-8 DEB
1 02647U 65073L   13290.45060742  .00000050  00000-0  97475-3 0  9780
2 02647 056.0647 281.7095 0185291 030.8845 136.0049 12.42997271542294
0 SL-8 DEB
1 02647U 65073L   13292.99521937  .00000084  00000-0  12094-2 0  9790
2 02647 056.0649 274.9291 0185403 034.2531 002.6271 12.42998146542616
0 SL-8 DEB
1 02647U 65073L   13295.35266991  .00000082  00000-0  11971-2 0  9802
2 02647 056.0648 268.6472 0185575 037.3650 111.7531 12.42998674542901
